[{"OBJECT_NAME":"CELESTIS-17 & SHERPA-FX1","OBJECT_ID":"2021-006CB","EPOCH":"2026-03-09T15:26:05.078112","MEAN_MOTION":15.30994801,"ECCENTRICITY":0.000663,"INCLINATION":97.2397,"RA_OF_ASC_NODE":112.1052,"ARG_OF_PERICENTER":178.1385,"MEAN_ANOMALY":181.9882,"EPHEMERIS_TYPE":0,"CLASSIFICATION_TYPE":"U","NORAD_CAT_ID":47486,"ELEMENT_SET_NO":999,"REV_AT_EPOCH":28406,"BSTAR":0.00024301,"MEAN_MOTION_DOT":7.207e-5,"MEAN_MOTION_DDOT":0},{"OBJECT_NAME":"STARLINK-33872","OBJECT_ID":"2025-113V","EPOCH":"2026-03-09T10:45:48.912192","MEAN_MOTION":15.30220217,"ECCENTRICITY":0.00014429,"INCLINATION":53.1605,"RA_OF_ASC_NODE":91.8609,"ARG_OF_PERICENTER":59.9173,"MEAN_ANOMALY":300.1971,"EPHEMERIS_TYPE":0,"CLASSIFICATION_TYPE":"U","NORAD_CAT_ID":64189,"ELEMENT_SET_NO":999,"REV_AT_EPOCH":4499,"BSTAR":0.0010544113,"MEAN_MOTION_DOT":0.00031019,"MEAN_MOTION_DDOT":0}]
